OBJECT_NAME,OBJECT_ID,EPOCH,MEAN_MOTION,ECCENTRICITY,INCLINATION,RA_OF_ASC_NODE,ARG_OF_PERICENTER,MEAN_ANOMALY,EPHEMERIS_TYPE,CLASSIFICATION_TYPE,NORAD_CAT_ID,ELEMENT_SET_NO,REV_AT_EPOCH,BSTAR,MEAN_MOTION_DOT,MEAN_MOTION_DDOT
CUTE-1 (CO-55),2003-031E,2026-05-16T10:12:29.585088,14.24314816,.0008292,98.6746,145.3835,279.0347,80.9894,0,U,27844,999,18715,.99595E-4,.186E-5,0
CUBESAT XI-IV (CO-57),2003-031J,2026-05-16T11:14:11.419008,14.23602737,.0008323,98.6777,145.1638,300.0298,60.0055,0,U,27848,999,18686,.87363E-4,.155E-5,0
CUBESAT XI-V,2005-043F,2026-05-15T09:06:38.600352,14.72539240,.00130267,98.2948,290.3214,313.0591,46.9524,0,U,28895,999,9692,.1248788E-3,.741E-5,0
CUTE-1.7+APD II (CO-65),2008-021C,2026-05-16T13:23:59.402688,15.09129276,.00102749,97.8264,117.3307,129.6427,230.5709,0,U,32785,999,98042,.25424574E-3,.3971E-4,0
CANX-2,2008-021H,2026-05-16T09:14:25.880064,15.05372349,.0011447,97.8622,115.5554,143.3810,216.8200,0,U,32790,999,98002,.14477E-3,.2012E-4,0
SEEDS II (CO-66),2008-021J,2026-05-16T11:03:13.497696,15.31599019,.0004878,97.7517,132.8741,77.3514,282.8272,0,U,32791,999,98243,.56122E-3,.17067E-3,0
SWISSCUBE,2009-051B,2026-05-16T11:46:34.947264,14.62415358,.0005953,98.4056,43.8254,322.1102,37.9679,0,U,35932,999,88452,.13605E-3,.639E-5,0
BEESAT-1,2009-051C,2026-05-16T13:15:09.560736,14.61664420,.00047826,98.3985,43.5894,340.8636,19.2384,0,U,35933,999,88456,.11593666E-3,.528E-5,0
ITUPSAT1,2009-051E,2026-05-16T12:22:14.111904,14.60388968,.00071943,98.4070,42.7774,347.9337,12.1689,0,U,35935,999,88411,.11041985E-3,.486E-5,0
TISAT 1,2010-035E,2026-05-16T11:37:58.674432,15.30426749,.0003225,98.0704,80.2582,46.7440,313.4068,0,U,36799,999,86285,.5734509E-3,.16809E-3,0
AEROCUBE 4.5A,2012-048K,2026-05-16T10:36:20.072736,15.78668078,.0018618,64.6277,141.4098,216.5222,143.4664,0,U,38767,999,36762,.99371E-3,.180276E-2,0
STRAND-1,2013-009E,2026-05-16T14:04:56.024256,14.37143343,.00079797,98.3916,317.6004,333.1239,26.9534,0,U,39090,999,69252,.72765361E-4,.174E-5,0
BRITE-AUSTRIA,2013-009F,2026-05-16T10:43:20.009568,14.36528593,.000972,98.3987,316.6696,341.7953,18.2885,0,U,39091,999,69249,.50264E-4,.105E-5,0
NEE-01 PEGASO,2013-018B,2026-05-16T12:14:37.212288,14.93492480,.00112997,98.1181,279.6254,268.0205,91.9720,0,U,39151,999,70597,.1195558E-3,.1198E-4,0
POPACS 2,2013-055E,2026-05-16T13:32:00.567744,14.90478745,.04187759,80.9920,180.3738,295.5248,60.3218,0,U,39269,999,65850,.20249642E-3,.11772E-3,0
POPACS 3,2013-055F,2026-05-16T15:20:11.597568,14.55329746,.05548306,81.0017,263.3692,165.9259,195.8151,0,U,39270,999,63396,.32531413E-3,.13653E-3,0
ZACUBE-1 (TSHEPISOSAT),2013-066B,2026-05-16T13:02:35.344032,15.00928794,.00414151,97.8121,98.7087,359.4022,0.7145,0,U,39417,999,67598,.25317838E-3,.322E-4,0
WNISAT-1,2013-066H,2026-05-16T08:50:41.407584,14.58020234,.01624342,97.7162,287.7903,332.5838,26.6860,0,U,39423,999,66209,.63785683E-4,.3E-5,0
TRITON-1,2013-066M,2026-05-16T14:55:55.399872,14.81557355,.00898002,97.8272,47.1482,338.2897,21.4519,0,U,39427,999,66941,.14837504E-3,.119E-4,0
GOMX-1,2013-066Q,2026-05-16T12:29:51.003744,14.69324911,.0128722,97.6507,338.9813,178.5465,181.6142,0,U,39430,999,66526,.16705E-3,.1068E-4,0
CUBEBUG-2 (LO-74),2013-066AA,2026-05-16T13:50:27.560832,14.93503845,.00590594,97.8895,85.4325,131.1031,229.5310,0,U,39440,999,67227,.16588399E-3,.1745E-4,0
NEE-02 KRYSAOR,2013-066AB,2026-05-16T13:44:53.812320,14.86490722,.00663643,97.8884,76.0195,172.0507,188.1777,0,U,39441,999,67150,.11344518E-3,.985E-5,0
FUNCUBE-1 (AO-73),2013-066AE,2026-05-16T13:33:05.408352,15.09055239,.00349836,97.8262,107.3644,313.7685,46.0649,0,U,39444,999,67489,.32583605E-3,.5163E-4,0
UWE-3,2013-066AG,2026-05-16T07:54:52.566048,14.96735118,.00505398,97.8683,92.2014,66.4979,294.1542,0,U,39446,999,67281,.24674371E-3,.2831E-4,0
BRITE-CA1 (TORONTO),2014-033L,2026-05-16T13:53:58.591104,14.72630836,.0079015,97.9694,266.0987,19.1218,341.2927,0,U,40020,999,63756,.6999945E-4,.414E-5,0
DUCHIFAT-1,2014-033M,2026-05-16T14:52:40.760544,15.58721151,.00060279,98.0501,191.5049,176.8188,183.3106,0,U,40021,999,65082,.96517746E-3,.74793E-3,0
NANOSATC-BR1,2014-033Q,2026-05-16T05:50:13.610976,15.30384614,.00016928,98.0743,165.8253,305.8001,54.3080,0,U,40024,999,64909,.50306884E-3,.14711E-3,0
QB50P1,2014-033R,2026-05-16T12:13:43.396320,15.17735477,.0007982,98.0972,145.4471,346.0953,14.0058,0,U,40025,999,64822,.34483E-3,.6888E-4,0
QB50P2,2014-033Y,2026-05-16T14:15:11.218176,15.14726051,.00057096,98.0752,131.5201,286.8484,73.2119,0,U,40032,999,64788,.30093373E-3,.5504E-4,0
PERSEUS-M2,2014-033AD,2026-05-16T14:46:01.786944,14.95407087,.00132844,97.9946,86.5186,49.4887,310.7488,0,U,40037,999,64606,.13990738E-3,.1487E-4,0
