CUTE-1 (CO-55)          
1 27844U 03031E   26136.42534242  .00000186  00000+0  99595-4 0  9991
2 27844  98.6746 145.3835 0008292 279.0347  80.9894 14.24314816187153
CUBESAT XI-IV (CO-57)   
1 27848U 03031J   26136.46818772  .00000155  00000+0  87363-4 0  9998
2 27848  98.6777 145.1638 0008323 300.0298  60.0055 14.23602737186861
CUBESAT XI-V            
1 28895U 05043F   26135.37961343  .00000741  00000+0  12488-3 0  9994
2 28895  98.2948 290.3214 0013026 313.0591  46.9524 14.72539240 96922
CUTE-1.7+APD II (CO-65) 
1 32785U 08021C   26136.55832642  .00003971  00000+0  25425-3 0  9999
2 32785  97.8264 117.3307 0010274 129.6427 230.5709 15.09129276980421
CANX-2                  
1 32790U 08021H   26136.38502176  .00002012  00000+0  14477-3 0  9992
2 32790  97.8622 115.5554 0011447 143.3810 216.8200 15.05372349980027
SEEDS II (CO-66)        
1 32791U 08021J   26136.46057289  .00017067  00000+0  56122-3 0  9991
2 32791  97.7517 132.8741 0004878  77.3514 282.8272 15.31599019982430
SWISSCUBE               
1 35932U 09051B   26136.49068226  .00000639  00000+0  13605-3 0  9997
2 35932  98.4056  43.8254 0005953 322.1102  37.9679 14.62415358884522
BEESAT-1                
1 35933U 09051C   26136.55219399  .00000528  00000+0  11594-3 0  9996
2 35933  98.3985  43.5894 0004782 340.8636  19.2384 14.61664420884563
ITUPSAT1                
1 35935U 09051E   26136.51544111  .00000486  00000+0  11042-3 0  9998
2 35935  98.4070  42.7774 0007194 347.9337  12.1689 14.60388968884115
TISAT 1                 
1 36799U 10035E   26136.48470688  .00016809  00000+0  57345-3 0  9996
2 36799  98.0704  80.2582 0003225  46.7440 313.4068 15.30426749862851
AEROCUBE 4.5A           
1 38767U 12048K   26136.44189899  .00180276  00000+0  99371-3 0  9991
2 38767  64.6277 141.4098 0018618 216.5222 143.4664 15.78668078367624
STRAND-1                
1 39090U 13009E   26136.58675954  .00000174  00000+0  72765-4 0  9993
2 39090  98.3916 317.6004 0007979 333.1239  26.9534 14.37143343692522
BRITE-AUSTRIA           
1 39091U 13009F   26136.44675937  .00000105  00000+0  50264-4 0  9994
2 39091  98.3987 316.6696 0009720 341.7953  18.2885 14.36528593692493
NEE-01 PEGASO           
1 39151U 13018B   26136.51015292  .00001198  00000+0  11956-3 0  9998
2 39151  98.1181 279.6254 0011299 268.0205  91.9720 14.93492480705979
POPACS 2                
1 39269U 13055E   26136.56389546  .00011772  00000+0  20250-3 0  9996
2 39269  80.9920 180.3738 0418775 295.5248  60.3218 14.90478745658509
POPACS 3                
1 39270U 13055F   26136.63902312  .00013653  00000+0  32531-3 0  9993
2 39270  81.0017 263.3692 0554830 165.9259 195.8151 14.55329746633966
ZACUBE-1 (TSHEPISOSAT)  
1 39417U 13066B   26136.54346463  .00003220  00000+0  25318-3 0  9991
2 39417  97.8121  98.7087 0041415 359.4022   0.7145 15.00928794675980
WNISAT-1                
1 39423U 13066H   26136.36853481  .00000300  00000+0  63786-4 0  9999
2 39423  97.7162 287.7903 0162434 332.5838  26.6860 14.58020234662093
TRITON-1                
1 39427U 13066M   26136.62216898  .00001190  00000+0  14838-3 0  9998
2 39427  97.8272  47.1482 0089800 338.2897  21.4519 14.81557355669415
GOMX-1                  
1 39430U 13066Q   26136.52072921  .00001068  00000+0  16705-3 0  9997
2 39430  97.6507 338.9813 0128722 178.5465 181.6142 14.69324911665266
CUBEBUG-2 (LO-74)       
1 39440U 13066AA  26136.57670788  .00001745  00000+0  16588-3 0  9999
2 39440  97.8895  85.4325 0059059 131.1031 229.5310 14.93503845672271
NEE-02 KRYSAOR          
1 39441U 13066AB  26136.57284505  .00000985  00000+0  11345-3 0  9999
2 39441  97.8884  76.0195 0066364 172.0507 188.1777 14.86490722671503
FUNCUBE-1 (AO-73)       
1 39444U 13066AE  26136.56464593  .00005163  00000+0  32584-3 0  9999
2 39444  97.8262 107.3644 0034983 313.7685  46.0649 15.09055239674897
UWE-3                   
1 39446U 13066AG  26136.32977507  .00002831  00000+0  24674-3 0  9999
2 39446  97.8683  92.2014 0050539  66.4979 294.1542 14.96735118672816
BRITE-CA1 (TORONTO)     
1 40020U 14033L   26136.57915036  .00000414  00000+0  69999-4 0  9995
2 40020  97.9694 266.0987 0079015  19.1218 341.2927 14.72630836637569
DUCHIFAT-1              
1 40021U 14033M   26136.61991621  .00074793  00000+0  96518-3 0  9992
2 40021  98.0501 191.5049 0006027 176.8188 183.3106 15.58721151650824
NANOSATC-BR1            
1 40024U 14033Q   26136.24321309  .00014711  00000+0  50307-3 0  9994
2 40024  98.0743 165.8253 0001692 305.8001  54.3080 15.30384614649091
QB50P1                  
1 40025U 14033R   26136.50953005  .00006888  00000+0  34483-3 0  9991
2 40025  98.0972 145.4471 0007982 346.0953  14.0058 15.17735477648227
QB50P2                  
1 40032U 14033Y   26136.59387984  .00005504  00000+0  30093-3 0  9992
2 40032  98.0752 131.5201 0005709 286.8484  73.2119 15.14726051647884
PERSEUS-M2              
1 40037U 14033AD  26136.61529846  .00001487  00000+0  13991-3 0  9999
2 40037  97.9946  86.5186 0013284  49.4887 310.7488 14.95407087646060
